NORAD_CAT_ID,OBJECT_NAME,OBJECT_TYPE,EPOCH,MEAN_MOTION,ECCENTRICITY,INCLINATION,RA_OF_ASC_NODE,ARG_OF_PERICENTER,MEAN_ANOMALY,BSTAR,MEAN_MOTION_DOT,MEAN_MOTION_DDOT,TLE_LINE0,TLE_LINE1,TLE_LINE2,SEMIMAJOR_AXIS,PERIOD,APOGEE,PERIGEE,DECAYED
51889.0,STARLINK-3547,PAYLOAD,2022-11-03 11:39:49,15.08837771,0.0001953,53.2191,85.8141,35.7659,324.3464,2.4297e-05,9.9e-07,0.0,0 STARLINK-3547,1 51889U 22022AP  22307.48598584  .00000099  00000-0  24297-4 0  9990,2 51889  53.2191  85.8141 0001953  35.7659 324.3464 15.08837771 38738,6917.887,95.438,541.1030000000002,538.401,0.0
51889.0,STARLINK-3547,PAYLOAD,2022-11-03 18:01:21,15.08838801,0.0001811,53.2179,84.6237,38.5695,321.5426,4.0289e-05,3.53e-06,0.0,0 STARLINK-3547,1 51889U 22022AP  22307.75094413  .00000353  00000-0  40289-4 0  9994,2 51889  53.2179  84.6237 0001811  38.5695 321.5426 15.08838801 38777,6917.884,95.438,541.002,538.496,0.0
51889.0,STARLINK-3547,PAYLOAD,2022-11-04 09:55:12,15.08848052,0.0001885,53.2183,81.6495,42.9809,317.133,0.0001084,1.438e-05,0.0,0 STARLINK-3547,1 51889U 22022AP  22308.41333545  .00001438  00000-0  10840-3 0  9994,2 51889  53.2183  81.6495 0001885  42.9809 317.1330 15.08848052 38877,6917.856,95.437,541.025,538.4169999999998,0.0
51889.0,STARLINK-3547,PAYLOAD,2022-11-04 11:30:35,15.08844833,0.0002377,53.2142,81.3501,18.0727,342.0349,4.7703e-05,4.71e-06,0.0,0 STARLINK-3547,1 51889U 22022AP  22308.47958020  .00000471  00000-0  47703-4 0  9996,2 51889  53.2142  81.3501 0002377  18.0727 342.0349 15.08844833 38888,6917.866,95.437,541.375,538.086,0.0
51889.0,STARLINK-3547,PAYLOAD,2022-11-04 17:52:08,15.08838241,0.0001977,53.2193,80.1645,41.8313,318.283,-3.3561e-05,-8.22e-06,0.0,0 STARLINK-3547,1 51889U 22022AP  22308.74454559 -.00000822  00000-0 -33561-4 0  9993,2 51889  53.2193  80.1645 0001977  41.8313 318.2830 15.08838241 38921,6917.886,95.438,541.118,538.383,0.0
51889.0,STARLINK-3547,PAYLOAD,2022-11-05 11:21:23,15.08834563,0.0001955,53.2196,76.8936,48.2315,311.8844,1.3199e-05,-7.8e-07,0.0,0 STARLINK-3547,1 51889U 22022AP  22309.47318733 -.00000078  00000-0  13199-4 0  9994,2 51889  53.2196  76.8936 0001955  48.2315 311.8844 15.08834563 39038,6917.897,95.438,541.114,538.41,0.0
51889.0,STARLINK-3547,PAYLOAD,2022-11-05 17:42:56,15.08830061,0.0002019,53.218,75.7018,23.1389,336.9694,-0.00015027,-2.678e-05,0.0,0 STARLINK-3547,1 51889U 22022AP  22309.73815644 -.00002678  00000-0 -15027-3 0  9996,2 51889  53.2180  75.7018 0002019  23.1389 336.9694 15.08830061 39079,6917.911,95.438,541.172,538.379,0.0
51889.0,STARLINK-3547,PAYLOAD,2022-11-06 12:47:35,15.08823152,0.0002197,53.2195,72.1368,54.3991,305.7205,-4.0446e-05,-9.32e-06,0.0,0 STARLINK-3547,1 51889U 22022AP  22310.53304517 -.00000932  00000-0 -40446-4 0  9993,2 51889  53.2195  72.1368 0002197  54.3991 305.7205 15.08823152 39194,6917.932,95.439,541.317,538.2769999999998,0.0
51889.0,STARLINK-3547,PAYLOAD,2022-11-06 17:33:43,15.08832774,0.0002228,53.2171,71.2411,33.2042,326.9089,6.2339e-05,7.04e-06,0.0,0 STARLINK-3547,1 51889U 22022AP  22310.73175907  .00000704  00000-0  62339-4 0  9994,2 51889  53.2171  71.2411 0002228  33.2042 326.9089 15.08832774 39224,6917.901999999999,95.438,541.309,538.226,0.0
51889.0,STARLINK-3547,PAYLOAD,2022-11-07 14:13:44,15.08833205,0.0002251,53.2165,67.3745,40.1928,319.923,0.00014394,2.003e-05,0.0,0 STARLINK-3547,1 51889U 22022AP  22311.59287885  .00002003  00000-0  14394-3 0  9999,2 51889  53.2165  67.3745 0002251  40.1928 319.9230 15.08833205 39353,6917.901,95.438,541.323,538.2090000000002,0.0
51889.0,STARLINK-3547,PAYLOAD,2022-11-08 01:21:25,15.08845956,0.0002407,53.2188,65.2973,41.8981,318.2195,0.00027744,4.131e-05,0.0,0 STARLINK-3547,1 51889U 22022AP  22312.05654881  .00004131  00000-0  27744-3 0  9992,2 51889  53.2188  65.2973 0002407  41.8981 318.2195 15.08845956 39424,6917.861999999999,95.437,541.3919999999998,538.062,0.0
51889.0,STARLINK-3547,PAYLOAD,2022-11-08 17:15:16,15.08853063,0.0002395,53.2184,62.323,40.5457,319.5713,0.00021339,3.111e-05,0.0,0 STARLINK-3547,1 51889U 22022AP  22312.71894289  .00003111  00000-0  21339-3 0  9994,2 51889  53.2184  62.3230 0002395  40.5457 319.5713 15.08853063 39523,6917.84,95.437,541.362,538.049,0.0
51889.0,STARLINK-3547,PAYLOAD,2022-11-09 13:55:20,15.08810384,0.0002351,53.2186,58.4575,41.7138,318.4033,-0.00032448,-5.445e-05,0.0,0 STARLINK-3547,1 51889U 22022AP  22313.58009519 -.00005445  00000-0 -32448-3 0  9991,2 51889  53.2186  58.4575 0002351  41.7138 318.4033 15.08810384 39650,6917.971,95.439,541.462,538.2090000000002,0.0
51889.0,STARLINK-3547,PAYLOAD,2022-11-09 17:06:06,15.08811393,0.0002342,53.2187,57.8628,41.4903,318.6267,-0.00030661,-5.161e-05,0.0,0 STARLINK-3547,1 51889U 22022AP  22313.71257582 -.00005161  00000-0 -30661-3 0  9991,2 51889  53.2187  57.8628 0002342  41.4903 318.6267 15.08811393 39674,6917.968000000003,95.439,541.453,538.2130000000002,0.0
51889.0,STARLINK-3547,PAYLOAD,2022-11-10 10:35:20,15.08828719,0.000225,53.2189,54.5915,38.8187,321.2967,-0.00021483,-3.705e-05,0.0,0 STARLINK-3547,1 51889U 22022AP  22314.44120434 -.00003705  00000-0 -21483-3 0  9991,2 51889  53.2189  54.5915 0002250  38.8187 321.2967 15.08828719 39780,6917.915,95.438,541.336,538.2230000000002,0.0
51889.0,STARLINK-3547,PAYLOAD,2022-11-10 16:56:52,15.08831292,0.0002264,53.2188,53.4019,38.083,322.0322,-0.00016673,-2.94e-05,0.0,0 STARLINK-3547,1 51889U 22022AP  22314.70616286 -.00002940  00000-0 -16673-3 0  9990,2 51889  53.2188  53.4019 0002264  38.0830 322.0322 15.08831292 39823,6917.906999999997,95.438,541.3380000000002,538.206,0.0
51889.0,STARLINK-3547,PAYLOAD,2022-11-11 12:01:30,15.0883051,0.0002172,53.2188,49.8334,39.091,321.0238,-6.144100000000001e-05,-1.266e-05,0.0,0 STARLINK-3547,1 51889U 22022AP  22315.50104216 -.00001266  00000-0 -61441-4 0  9998,2 51889  53.2188  49.8334 0002172  39.0910 321.0238 15.08830510 39940,6917.909000000002,95.438,541.2769999999998,538.2719999999998,0.0
51889.0,STARLINK-3547,PAYLOAD,2022-11-11 15:12:16,15.08829793,0.0002143,53.2191,49.2387,36.6635,323.4503,-3.7219e-05,-8.8e-06,0.0,0 STARLINK-3547,1 51889U 22022AP  22315.63352301 -.00000880  00000-0 -37219-4 0  9999,2 51889  53.2191  49.2387 0002143  36.6635 323.4503 15.08829793 39965,6917.9119999999975,95.438,541.259,538.294,0.0
51889.0,STARLINK-3547,PAYLOAD,2022-11-11 23:09:12,15.08820369,0.0002239,53.2196,47.7523,39.9345,320.1812,0.00035415,5.350000000000001e-05,0.0,0 STARLINK-3547,1 51889U 22022AP  22315.96472593  .00005350  00000-0  35415-3 0  9991,2 51889  53.2196  47.7523 0002239  39.9345 320.1812 15.08820369 40010,6917.94,95.439,541.354,538.256,0.0
51889.0,STARLINK-3547,PAYLOAD,2022-11-12 11:52:17,15.08834272,0.0002123,53.2195,45.37300000000001,39.1488,320.9658,0.00026397,3.915e-05,0.0,0 STARLINK-3547,1 51889U 22022AP  22316.49464340  .00003915  00000-0  26397-3 0  9995,2 51889  53.2195  45.3730 0002123  39.1488 320.9658 15.08834272 40097,6917.898,95.438,541.232,538.294,0.0
51889.0,STARLINK-3547,PAYLOAD,2022-11-12 15:03:03,15.08847976,0.0002147,53.2195,44.7783,43.2874,316.8286,7.213199999999999e-05,8.599999999999999e-06,0.0,0 STARLINK-3547,1 51889U 22022AP  22316.62711854  .00000860  00000-0  72132-4 0  9990,2 51889  53.2195  44.7783 0002147  43.2874 316.8286 15.08847976 40118,6917.856,95.437,541.206,538.236,0.0
51889.0,STARLINK-3547,PAYLOAD,2022-11-13 11:43:04,15.0883238,0.0002276,53.2187,40.9132,31.9058,328.2071,1.4404e-05,-5.9e-07,0.0,0 STARLINK-3547,1 51889U 22022AP  22317.48824594 -.00000059  00000-0  14404-4 0  9990,2 51889  53.2187  40.9132 0002276  31.9058 328.2071 15.08832380 40242,6917.904,95.438,541.3430000000002,538.194,0.0
51889.0,STARLINK-3547,PAYLOAD,2022-11-13 14:53:51,15.08826604,0.0002282,53.2193,40.3184,32.0059,328.1071,5.5124e-05,5.89e-06,0.0,0 STARLINK-3547,1 51889U 22022AP  22317.62073412  .00000589  00000-0  55124-4 0  9992,2 51889  53.2193  40.3184 0002282  32.0059 328.1071 15.08826604 40263,6917.920999999999,95.438,541.365,538.2080000000002,0.0
51889.0,STARLINK-3547,PAYLOAD,2022-11-14 08:23:05,15.08837105,0.0002218,53.2195,37.0479,29.6773,330.4344,-1.8151e-05,-5.77e-06,0.0,0 STARLINK-3547,1 51889U 22022AP  22318.34937155 -.00000577  00000-0 -18151-4 0  9993,2 51889  53.2195  37.0479 0002218  29.6773 330.4344 15.08837105 40378,6917.889,95.438,541.289,538.22,0.0
51889.0,STARLINK-3547,PAYLOAD,2022-11-14 11:33:51,15.08838029,0.0002282,53.2195,36.4534,29.6201,330.492,1.7046e-05,-1.7e-07,0.0,0 STARLINK-3547,1 51889U 22022AP  22318.48185057 -.00000017  00000-0  17046-4 0  9994,2 51889  53.2195  36.4534 0002282  29.6201 330.4920 15.08838029 40398,6917.886,95.438,541.33,538.173,0.0
51889.0,STARLINK-3547,PAYLOAD,2022-11-14 14:44:37,15.08840395,0.0002271,53.2195,35.8585,29.4862,330.6258,3.2081e-05,2.22e-06,0.0,0 STARLINK-3547,1 51889U 22022AP  22318.61432862  .00000222  00000-0  32081-4 0  9991,2 51889  53.2195  35.8585 0002271  29.4862 330.6258 15.08840395 40414,6917.879,95.438,541.315,538.173,0.0
51889.0,STARLINK-3547,PAYLOAD,2022-11-15 05:03:05,15.0884545,0.0002253,53.2197,33.1825,30.4624,329.6499,7.8158e-05,9.56e-06,0.0,0 STARLINK-3547,1 51889U 22022AP  22319.21048250  .00000956  00000-0  78158-4 0  9991,2 51889  53.2197  33.1825 0002253  30.4624 329.6499 15.08845450 40504,6917.864000000001,95.437,541.2869999999998,538.17,0.0
51889.0,STARLINK-3547,PAYLOAD,2022-11-15 11:24:38,15.08836373,0.000225,53.2196,31.9928,32.0845,328.0283,0.00016157,2.284e-05,0.0,0 STARLINK-3547,1 51889U 22022AP  22319.47544707  .00002284  00000-0  16157-3 0  9993,2 51889  53.2196  31.9928 0002250  32.0845 328.0283 15.08836373 40545,6917.891,95.438,541.313,538.2,0.0
51889.0,STARLINK-3547,PAYLOAD,2022-11-15 16:10:48,15.08834689,0.0002256,53.2194,31.1006,29.3244,330.7875,0.00013549,1.868e-05,0.0,0 STARLINK-3547,1 51889U 22022AP  22319.67417055  .00001868  00000-0  13549-3 0  9999,2 51889  53.2194  31.1006 0002256  29.3244 330.7875 15.08834689 40578,6917.897,95.438,541.322,538.201,0.0
